GLOBALSTAR M023         
1 25621U 99004A   25001.87927545 -.00000004  00000+0  55301-3 0  9994
2 25621  52.0080 199.8518 0010952 117.1451  17.0098 12.62493276194721
GLOBALSTAR M040         
1 25622U 99004B   25001.95083032  .00000033  00000+0  76521-3 0  9996
2 25622  51.9890 203.5399 0001785  62.8596  84.7343 12.61996927194262
GLOBALSTAR M036         
1 25623U 99004C   25001.61517958  .00000019  00000+0  14907-2 0  9992
2 25623  51.9993 319.3668 0011175  92.6185  78.4125 11.86586382159200
GLOBALSTAR M038         
1 25624U 99004D   25001.85394109 -.00000040  00000+0  45358-3 0  9990
2 25624  51.9942 190.5896 0003040  76.5968   8.0812 12.32517643181864
GLOBALSTAR M022         
1 25649U 99012A   25001.77165566 -.00000088  00000+0 -12875-4 0  9992
2 25649  52.0063  23.2937 0002391 195.3756 335.5911 12.02494145156350
GLOBALSTAR M041         
1 25650U 99012B   25001.83195736  .00000047  00000+0  17081-2 0  9998
2 25650  52.0015 259.5127 0002632  12.5218 347.5683 11.96668112158366
GLOBALSTAR M046         
1 25651U 99012C   25001.88226510 -.00000009  00000+0  87803-3 0  9998
2 25651  52.0075 339.1977 0002061 288.3048  86.2666 12.09403122163548
GLOBALSTAR M037         
1 25652U 99012D   25001.90998545  .00000029  00000+0  74004-3 0  9996
2 25652  52.0023 330.4367 0001709 168.6450 237.5410 12.62431134190275
